GAOFEN-11 01            
1 43585U 18063A   26200.65516044  .00010311  00000+0  14880-3 0  9993
2 43585  97.1266 267.4594 0003660 182.1331 177.9910 15.56153997445399
ICESAT-2                
1 43613U 18070A   26200.56751120  .00004738  00000+0  17226-3 0  9992
2 43613  92.0088 299.7299 0005140  49.1994 310.9700 15.28220203437402
HYSIS                   
1 43719U 18096A   26200.62555288  .00001102  00000+0  15739-3 0  9990
2 43719  97.9821 267.1169 0001781  83.6273 276.5141 14.78677257412210
KAZSTSAT                
1 43783U 18099AB  26200.51952800  .00000025  00000+0  64938-5 0  9993
2 43783  97.4311 230.9920 0007191 322.8102  37.2624 14.99958068416153
SAUDISAT 5A             
1 43831U 18102A   26200.64203080  .00002640  00000+0  98179-4 0  9993
2 43831  97.3045 261.6006 0010009  29.4320 330.7481 15.28346254420631
SAUDISAT 5B             
1 43833U 18102C   26200.59013284  .00002557  00000+0  94467-4 0  9997
2 43833  97.3155 264.6782 0010792  30.9045 329.2829 15.28587741420748
GAOFEN-10R              
1 44622U 19066A   26200.60681615  .00000496  00000+0  67679-4 0  9990
2 44622  98.0511 154.4248 0006634  41.1127 319.0585 14.83062265367180
CARTOSAT-3              
1 44804U 19081A   26200.62813292  .00002366  00000+0  11547-3 0  9999
2 44804  97.4283 261.9697 0012636  44.8836 315.3419 15.19203525368394
GAOFEN-12 01            
1 44819U 19082A   26200.58922375  .00000140  00000+0  24920-4 0  9992
2 44819  97.8112 206.1150 0000764  62.0116 298.1174 14.80481362358885
CSG-1                   
1 44873U 19092A   26200.59143647  .00000125  00000+0  22260-4 0  9999
2 44873  97.8898  23.7263 0001452  95.4833 264.6546 14.82158711356278
NEMO-HD                 
1 46277U 20061F   26200.64479551  .00006341  00000+0  13546-3 0  9991
2 46277  97.1895 262.2804 0001025 109.3536 250.7824 15.45195059326997
SENTINEL-6A             
1 46984U 20086A   26200.33084347 -.00000060  00000+0  59844-5 0  9990
2 46984  66.0411  68.2905 0007785 269.7420  90.2703 12.80930215264440
CAS500-1                
1 47932U 21022A   26200.64626388  .00003050  00000+0  14406-3 0  9990
2 47932  97.3855  95.2356 0005654 156.5954 203.5540 15.20158621295690
GAOFEN-12 02            
1 48079U 21026A   26200.60377380  .00000133  00000+0  24427-4 0  9992
2 48079  97.9938 198.6545 0006056 120.7166 239.4643 14.80317754286550
PLEIADES NEO 3          
1 48268U 21034A   26200.33107218  .00000157  00000+0  26538-4 0  9993
2 48268  97.8937 274.6355 0001393  96.6622 263.4750 14.81672056282416
PLEIADES NEO 4          
1 49070U 21073E   26199.48690350  .00000372  00000+0  53929-4 0  9998
2 49070  97.8937 273.7994 0001317  95.2302 264.9061 14.81674771266007
LANDSAT 9               
1 49260U 21088A   26200.60874920  .00000134  00000+0  39874-4 0  9998
2 49260  98.2266 270.3912 0001097  91.3345 268.7979 14.57097252255723
CSG-2                   
1 51444U 22008A   26200.35510889  .00000311  00000+0  45604-4 0  9996
2 51444  97.8896  23.4868 0001661  89.8481 270.2922 14.82176378241356
GAOFEN-12 03            
1 52912U 22069A   26200.63920589  .00000239  00000+0  38249-4 0  9993
2 52912  97.8231  87.6849 0002340  68.1955 291.9506 14.80078681219418
SWOT                    
1 54754U 22173A   26200.57137041 -.00000018  00000+0 -10688-4 0  9995
2 54754  77.6115 351.5902 0000229  67.3100 292.8076 14.00172530183682
GAOFEN-12 04            
1 57654U 23123A   26200.59218038  .00000419  00000+0  62584-4 0  9996
2 57654  97.9097 118.1244 0003285  41.1085 319.0374 14.79779676157427
PARS 1                  
1 59065U 24039Q   26200.61117795  .00006520  00000+0  13382-3 0  9992
2 59065  97.4847 182.5717 0009224  12.1122 348.0347 15.46347527133654
RESURS-P 4              
1 59371U 24061A   26200.59017284  .00001541  00000+0  51864-4 0  9992
2 59371  97.2761 147.9305 0003214  83.1047 277.0561 15.32294672128720
LEGION 1                
1 59625U 24081A   26200.55297000  .00001663  00000+0  87914-4 0  9998
2 59625  97.5009 278.0669 0007811 251.5539 108.4845 15.16859409122445
LEGION 2                
1 59626U 24081B   26200.58341886  .00001750  00000+0  92326-4 0  9994
2 59626  97.5008 278.1936 0010565 216.7619 143.2890 15.16839152122456
ALOS-4 (DAICHI-4)       
1 60182U 24123A   26200.55465785  .00000633  00000+0  91626-4 0  9993
2 60182  97.9221 297.2659 0001546  98.0511 262.0876 14.79476380110663
LEGION 3                
1 60452U 24146A   26200.42291913  .00001130  00000+0  72053-4 0  9990
2 60452  45.0014 217.7272 0007791 357.1385   2.9448 15.15668412106910
LEGION 4                
1 60453U 24146B   26200.55439509  .00001776  00000+0  10530-3 0  9997
2 60453  45.0023 308.8900 0009222 140.6794 219.4755 15.15698001105788
SENTINEL-2C             
1 60989U 24157A   26200.48025597  .00000038  00000+0  31303-4 0  9995
2 60989  98.5682 274.8035 0001026 105.6346 254.4951 14.30816411 97606
IONOSFERA-M 1           
1 61735U 24199A   26200.61397895 -.00000003  00000+0  18444-4 0  9993
2 61735  98.7129  73.4373 0002091  66.4297 293.7101 14.22759688132318
