OBJECT_NAME,OBJECT_ID,EPOCH,MEAN_MOTION,ECCENTRICITY,INCLINATION,RA_OF_ASC_NODE,ARG_OF_PERICENTER,MEAN_ANOMALY,EPHEMERIS_TYPE,CLASSIFICATION_TYPE,NORAD_CAT_ID,ELEMENT_SET_NO,REV_AT_EPOCH,BSTAR,MEAN_MOTION_DOT,MEAN_MOTION_DDOT
GAOFEN-11 01,2018-063A,2026-07-19T15:43:25.862016,15.56153997,.00036604,97.1266,267.4594,182.1331,177.9910,0,U,43585,999,44539,.14880433E-3,.10311E-3,0
ICESAT-2,2018-070A,2026-07-19T13:37:12.967680,15.28220203,.00051405,92.0088,299.7299,49.1994,310.9700,0,U,43613,999,43740,.17226176E-3,.4738E-4,0
HYSIS,2018-096A,2026-07-19T15:00:47.768832,14.78677257,.00017816,97.9821,267.1169,83.6273,276.5141,0,U,43719,999,41221,.15738643E-3,.1102E-4,0
KAZSTSAT,2018-099AB,2026-07-19T12:28:07.219200,14.99958068,.00071916,97.4311,230.9920,322.8102,37.2624,0,U,43783,999,41615,.6493769E-5,.25E-6,0
SAUDISAT 5A,2018-102A,2026-07-19T15:24:31.461120,15.28346254,.00100095,97.3045,261.6006,29.4320,330.7481,0,U,43831,999,42063,.98178575E-4,.264E-4,0
SAUDISAT 5B,2018-102C,2026-07-19T14:09:47.477376,15.28587741,.00107926,97.3155,264.6782,30.9045,329.2829,0,U,43833,999,42074,.94466842E-4,.2557E-4,0
GAOFEN-10R,2019-066A,2026-07-19T14:33:48.915360,14.83062265,.00066348,98.0511,154.4248,41.1127,319.0585,0,U,44622,999,36718,.67678844E-4,.496E-5,0
CARTOSAT-3,2019-081A,2026-07-19T15:04:30.684288,15.19203525,.00126367,97.4283,261.9697,44.8836,315.3419,0,U,44804,999,36839,.11546826E-3,.2366E-4,0
GAOFEN-12 01,2019-082A,2026-07-19T14:08:28.932000,14.80481362,.00007644,97.8112,206.1150,62.0116,298.1174,0,U,44819,999,35888,.24920075E-4,.14E-5,0
CSG-1,2019-092A,2026-07-19T14:11:40.111008,14.82158711,.00014529,97.8898,23.7263,95.4833,264.6546,0,U,44873,999,35627,.22260046E-4,.125E-5,0
NEMO-HD,2020-061F,2026-07-19T15:28:30.332064,15.45195059,.00010251,97.1895,262.2804,109.3536,250.7824,0,U,46277,999,32699,.1354648E-3,.6341E-4,0
SENTINEL-6A,2020-086A,2026-07-19T07:56:24.875808,12.80930215,.00077854,66.0411,68.2905,269.7420,90.2703,0,U,46984,999,26444,.5984449E-5,-.6E-6,0
CAS500-1,2021-022A,2026-07-19T15:30:37.199232,15.20158621,.00056546,97.3855,95.2356,156.5954,203.5540,0,U,47932,999,29569,.14405755E-3,.305E-4,0
GAOFEN-12 02,2021-026A,2026-07-19T14:29:26.056320,14.80317754,.00060569,97.9938,198.6545,120.7166,239.4643,0,U,48079,999,28655,.24426649E-4,.133E-5,0
PLEIADES NEO 3,2021-034A,2026-07-19T07:56:44.636352,14.81672056,.00013939,97.8937,274.6355,96.6622,263.4750,0,U,48268,999,28241,.26537661E-4,.157E-5,0
PLEIADES NEO 4,2021-073E,2026-07-18T11:41:08.462400,14.81674771,.00013179,97.8937,273.7994,95.2302,264.9061,0,U,49070,999,26600,.53928827E-4,.372E-5,0
LANDSAT 9,2021-088A,2026-07-19T14:36:35.930880,14.57097252,.00010978,98.2266,270.3912,91.3345,268.7979,0,U,49260,999,25572,.39874419E-4,.134E-5,0
CSG-2,2022-008A,2026-07-19T08:31:21.408096,14.82176378,.00016613,97.8896,23.4868,89.8481,270.2922,0,U,51444,999,24135,.45603774E-4,.311E-5,0
GAOFEN-12 03,2022-069A,2026-07-19T15:20:27.388896,14.80078681,.000234,97.8231,87.6849,68.1955,291.9506,0,U,52912,999,21941,.38249049E-4,.239E-5,0
SWOT,2022-173A,2026-07-19T13:42:46.403424,14.00172530,.00002298,77.6115,351.5902,67.3100,292.8076,0,U,54754,999,18368,-.10687736E-4,-.18E-6,0
GAOFEN-12 04,2023-123A,2026-07-19T14:12:44.384832,14.79779676,.00032852,97.9097,118.1244,41.1085,319.0374,0,U,57654,999,15742,.62584418E-4,.419E-5,0
PARS 1,2024-039Q,2026-07-19T14:40:05.774880,15.46347527,.00092245,97.4847,182.5717,12.1122,348.0347,0,U,59065,999,13365,.13382178E-3,.652E-4,0
RESURS-P 4,2024-061A,2026-07-19T14:09:50.933376,15.32294672,.00032147,97.2761,147.9305,83.1047,277.0561,0,U,59371,999,12872,.5186351E-4,.1541E-4,0
LEGION 1,2024-081A,2026-07-19T13:16:16.608000,15.16859409,.00078115,97.5009,278.0669,251.5539,108.4845,0,U,59625,999,12244,.87914137E-4,.1663E-4,0
LEGION 2,2024-081B,2026-07-19T14:00:07.389504,15.16839152,.00105654,97.5008,278.1936,216.7619,143.2890,0,U,59626,999,12245,.92326151E-4,.175E-4,0
ALOS-4 (DAICHI-4),2024-123A,2026-07-19T13:18:42.438240,14.79476380,.00015462,97.9221,297.2659,98.0511,262.0876,0,U,60182,999,11066,.91625757E-4,.633E-5,0
LEGION 3,2024-146A,2026-07-19T10:09:00.212832,15.15668412,.00077911,45.0014,217.7272,357.1385,2.9448,0,U,60452,999,10691,.72052754E-4,.113E-4,0
LEGION 4,2024-146B,2026-07-19T13:18:19.735776,15.15698001,.00092223,45.0023,308.8900,140.6794,219.4755,0,U,60453,999,10578,.10529887E-3,.1776E-4,0
SENTINEL-2C,2024-157A,2026-07-19T11:31:34.115808,14.30816411,.00010261,98.5682,274.8035,105.6346,254.4951,0,U,60989,999,9760,.3130251E-4,.38E-6,0
IONOSFERA-M 1,2024-199A,2026-07-19T14:44:07.781280,14.22759688,.00020918,98.7129,73.4373,66.4297,293.7101,0,U,61735,999,13231,.18444256E-4,-.3E-7,0
